RUNNER-1 (TYVAK-1005)   
1 56953U 23084X   26068.96122186  .00013190  00000+0  38328-3 0  9992
2 56953  97.6067 207.5453 0007303 311.3836  48.6778 15.35579757152360
KUIPER-00218            
1 67780U 26030S   26068.64042744  .00022104  00000+0  64584-3 0  9990
2 67780  51.8829 219.4934 0006939  50.9637 309.1966 15.35202151  5084
